0 METEOR 2-17 DEB
1 29299U 88005N   13282.08593710  .00000620  00000-0  48380-3 0  6273
2 29299 082.5399 045.9112 0033546 134.5578 225.8347 13.90522737375369
0 METEOR 2-17 DEB
1 29299U 88005N   13286.61916887  .00000665  00000-0  51985-3 0  6296
2 29299 082.5403 042.2666 0033393 122.8819 237.5715 13.90529948375996
0 METEOR 2-17 DEB
1 29299U 88005N   13288.05827977  .00000742  00000-0  58202-3 0  6304
2 29299 082.5412 041.1107 0033626 118.9809 241.4999 13.90534013376198
0 METEOR 2-17 DEB
1 29299U 88005N   13290.57669586  .00001388  00000-0  11105-2 0  6323
2 29299 082.5383 039.0853 0033240 116.1978 244.3072 13.90548357376547
0 METEOR 2-17 DEB
1 29299U 88005N   13290.57672093  .00000766  00000-0  60067-3 0  6310
2 29299 082.5405 039.0890 0033461 111.5754 248.9155 13.90538437376549
0 METEOR 2-17 DEB
1 29299U 88005N   13291.00845011  .00000852  00000-0  66941-3 0  6325
2 29299 082.5389 038.7409 0033010 110.0216 250.5254 13.90541968376608
0 METEOR 2-17 DEB
1 29299U 88005N   13292.59144359  .00000892  00000-0  70224-3 0  6331
2 29299 082.5367 037.4644 0031315 104.9098 255.5682 13.90546096376828
0 METEOR 2-17 DEB
1 29299U 88005N   13294.60617182  .00000971  00000-0  76590-3 0  6345
2 29299 082.5346 035.8418 0029711 096.5866 263.8884 13.90552155377103
